[{"OBJECT_NAME":"STARLINK-4157","OBJECT_ID":"2022-076BB","EPOCH":"2026-03-09T06:52:27.258240","MEAN_MOTION":15.08838961,"ECCENTRICITY":0.00014423,"INCLINATION":53.2176,"RA_OF_ASC_NODE":75.9297,"ARG_OF_PERICENTER":87.7,"MEAN_ANOMALY":272.4158,"EPHEMERIS_TYPE":0,"CLASSIFICATION_TYPE":"U","NORAD_CAT_ID":53035,"ELEMENT_SET_NO":999,"REV_AT_EPOCH":20306,"BSTAR":-2.6227747e-5,"MEAN_MOTION_DOT":-7.05e-6,"MEAN_MOTION_DDOT":0},{"OBJECT_NAME":"CZ-6A DEB","OBJECT_ID":"2024-140RN","EPOCH":"2026-03-09T09:36:23.350464","MEAN_MOTION":14.99974811,"ECCENTRICITY":0.0047719,"INCLINATION":88.1445,"RA_OF_ASC_NODE":217.6461,"ARG_OF_PERICENTER":172.1525,"MEAN_ANOMALY":188.0467,"EPHEMERIS_TYPE":0,"CLASSIFICATION_TYPE":"U","NORAD_CAT_ID":61168,"ELEMENT_SET_NO":999,"REV_AT_EPOCH":8322,"BSTAR":0.0063622011,"MEAN_MOTION_DOT":0.00081758,"MEAN_MOTION_DDOT":0}]
